OBJECT_NAME,OBJECT_ID,EPOCH,MEAN_MOTION,ECCENTRICITY,INCLINATION,RA_OF_ASC_NODE,ARG_OF_PERICENTER,MEAN_ANOMALY,EPHEMERIS_TYPE,CLASSIFICATION_TYPE,NORAD_CAT_ID,ELEMENT_SET_NO,REV_AT_EPOCH,BSTAR,MEAN_MOTION_DOT,MEAN_MOTION_DDOT
STARLINK-34436,2025-126Q,2026-07-12T18:51:42.242112,14.98336450,.0002374,70.0010,78.8966,270.7200,89.3687,0,U,64358,999,5942,.33723E-3,.3934E-4,0
STARLINK-34291,2025-126R,2026-07-12T19:15:44.582112,14.98336801,.0002541,70.0020,78.9562,277.8657,82.2213,0,U,64359,999,5942,.3465E-3,.4045E-4,0
STARLINK-34458,2025-126S,2026-07-12T19:27:46.242432,14.98334993,.0002751,70.0010,78.9870,280.9110,79.1739,0,U,64360,999,5942,.28931E-3,.3361E-4,0
STARLINK-34243,2025-126T,2026-07-12T19:33:32.580288,14.98335628,.000347,69.9996,79.0021,284.1425,75.9348,0,U,64361,999,5942,.34033E-3,.3971E-4,0
STARLINK-34335,2025-126U,2026-07-12T18:57:28.498752,14.98336321,.0002533,70.0003,78.9146,266.2859,93.8010,0,U,64362,999,5942,.22888E-3,.2639E-4,0
STARLINK-34408,2025-126V,2026-07-12T18:45:26.230176,14.98344255,.0002147,70.0006,78.8860,273.8575,86.2338,0,U,64363,999,5942,.21431E-2,.2558E-3,0
STARLINK-34476,2025-126W,2026-07-12T19:15:30.719232,14.98332125,.0002829,70.0010,78.9582,270.1342,89.9493,0,U,64364,999,5942,.24402E-3,.282E-4,0
STARLINK-34479,2025-126X,2026-07-12T18:39:30.428928,14.98327495,.0002871,70.0008,79.2702,268.4900,91.5930,0,U,64365,999,5941,.34878E-3,.4071E-4,0
STARLINK-34484,2025-126Y,2026-07-12T18:51:28.031040,14.98334562,.0002402,70.0004,78.8955,262.5387,97.5500,0,U,64366,999,6063,.31935E-3,.372E-4,0
STARLINK-34483,2025-126Z,2026-07-12T18:57:42.787584,14.98336191,.0002337,70.0009,78.9098,273.3058,86.7834,0,U,64367,999,5942,.32076E-3,.3737E-4,0
STARLINK-34457,2025-126AA,2026-07-12T16:39:16.924896,14.98361074,.0003313,69.9993,79.3813,265.9017,94.1763,0,U,64368,999,5940,.82586E-3,.9783E-4,0
STARLINK-34444,2025-126AB,2026-07-12T18:21:41.571072,14.98337844,.0003256,69.9997,79.2247,282.9849,77.0947,0,U,64369,999,5941,.24411E-3,.2821E-4,0
STARLINK-11732 [DTC],2025-127A,2026-07-12T15:26:02.751360,15.70914201,.0001587,43.0003,51.4216,261.5482,98.5206,0,U,64370,999,6315,.99934E-3,.130214E-2,0
STARLINK-11731 [DTC],2025-127B,2026-07-12T15:48:58.687776,15.70905032,.0002169,43.0007,51.5496,267.1576,92.9043,0,U,64371,999,6315,.84251E-3,.109394E-2,0
STARLINK-11746 [DTC],2025-127C,2026-07-12T18:06:13.719744,15.70840944,.0002208,43.0011,50.5321,293.1578,66.9057,0,U,64372,999,6317,.13662E-2,.178678E-2,0
STARLINK-11748 [DTC],2025-127D,2026-07-12T14:34:01.324128,15.70916404,.0001761,42.9998,52.0232,258.9583,101.1086,0,U,64373,999,6314,.96918E-3,.126222E-2,0
STARLINK-11739 [DTC],2025-127E,2026-07-11T23:24:33.948288,15.70928103,.00043509,43.0001,54.9965,245.9652,114.0760,0,U,64374,999,6305,.90972129E-3,.118439E-2,0
STARLINK-11738 [DTC],2025-127F,2026-07-12T00:48:40.973184,15.70870735,.00018306,43.0003,55.4696,307.1620,52.9080,0,U,64375,999,6305,.88264554E-3,.114529E-2,0
STARLINK-11745 [DTC],2025-127G,2026-07-12T15:18:24.007968,15.70951404,.0002122,42.9998,51.3764,269.0899,90.9725,0,U,64376,999,6315,.17679E-2,.233996E-2,0
STARLINK-11742 [DTC],2025-127H,2026-07-12T15:41:19.883040,15.70942579,.0001568,43.0002,51.5021,249.0852,110.9848,0,U,64377,999,6315,.12406E-2,.162582E-2,0
STARLINK-11711 [DTC],2025-127J,2026-07-11T23:39:52.842528,15.70866264,.00011838,42.9987,55.0813,339.6110,20.4710,0,U,64378,999,6316,.13274826E-2,.173681E-2,0
STARLINK-11743 [DTC],2025-127K,2026-07-12T15:56:37.400064,15.70903997,.0002351,43.0005,51.5873,259.5298,100.5305,0,U,64379,999,6315,.92835E-3,.120748E-2,0
STARLINK-11744 [DTC],2025-127L,2026-07-12T15:33:41.428224,15.70933562,.0002083,43.0010,51.4587,261.6274,98.4358,0,U,64380,999,6315,.1367E-2,.179509E-2,0
STARLINK-11692 [DTC],2025-127M,2026-07-12T18:13:52.330944,15.70831272,.0001759,43.0000,50.5638,277.8057,82.2611,0,U,64381,999,6328,.9346E-3,.121193E-2,0
STARLINK-11740 [DTC],2025-127N,2026-07-12T14:47:48.829632,15.70976760,.0002232,43.0007,51.2012,253.9817,106.0805,0,U,64382,999,6315,.17871E-2,.236882E-2,0
STARLINK-34299,2025-127P,2026-07-12T01:28:10.218432,15.27590998,.00007961,42.9983,197.7818,214.1182,145.9619,0,U,64383,999,6143,.51555028E-3,.13956E-3,0
STARLINK-34271,2025-127Q,2026-07-12T01:11:30.613632,15.27591612,.00009605,42.9978,197.6897,257.9627,102.1117,0,U,64384,999,6148,.5654392E-3,.15335E-3,0
STARLINK-34100,2025-127R,2026-07-12T01:17:04.098624,15.27585831,.0000664,42.9970,197.7206,264.4660,95.6116,0,U,64385,999,6143,.33819348E-3,.9058E-4,0
STARLINK-34269,2025-127S,2026-07-12T09:35:23.419104,15.27582465,.0001388,42.9993,195.1548,261.1917,98.8777,0,U,64386,999,6154,.29667472E-3,.7911E-4,0
STARLINK-34351,2025-127T,2026-07-12T09:33:32.269824,15.27589851,.00022724,43.0030,195.1481,286.0487,74.0115,0,U,64387,999,6154,.45895864E-3,.12393E-3,0
