STARLINK-34436          
1 64358U 25126Q   26193.78590558  .00003934  00000+0  33723-3 0  9999
2 64358  70.0010  78.8966 0002374 270.7200  89.3687 14.98336450 59428
STARLINK-34291          
1 64359U 25126R   26193.80259933  .00004045  00000+0  34650-3 0  9996
2 64359  70.0020  78.9562 0002541 277.8657  82.2213 14.98336801 59420
STARLINK-34458          
1 64360U 25126S   26193.81095188  .00003361  00000+0  28931-3 0  9994
2 64360  70.0010  78.9870 0002751 280.9110  79.1739 14.98334993 59423
STARLINK-34243          
1 64361U 25126T   26193.81496042  .00003971  00000+0  34033-3 0  9996
2 64361  69.9996  79.0021 0003470 284.1425  75.9348 14.98335628 59424
STARLINK-34335          
1 64362U 25126U   26193.78991318  .00002639  00000+0  22888-3 0  9994
2 64362  70.0003  78.9146 0002533 266.2859  93.8010 14.98336321 59420
STARLINK-34408          
1 64363U 25126V   26193.78155359  .00025580  00000+0  21431-2 0  9994
2 64363  70.0006  78.8860 0002147 273.8575  86.2338 14.98344255 59420
STARLINK-34476          
1 64364U 25126W   26193.80243888  .00002820  00000+0  24402-3 0  9997
2 64364  70.0010  78.9582 0002829 270.1342  89.9493 14.98332125 59422
STARLINK-34479          
1 64365U 25126X   26193.77743552  .00004071  00000+0  34878-3 0  9995
2 64365  70.0008  79.2702 0002871 268.4900  91.5930 14.98327495 59413
STARLINK-34484          
1 64366U 25126Y   26193.78574110  .00003720  00000+0  31935-3 0  9990
2 64366  70.0004  78.8955 0002402 262.5387  97.5500 14.98334562 60637
STARLINK-34483          
1 64367U 25126Z   26193.79007856  .00003737  00000+0  32076-3 0  9995
2 64367  70.0009  78.9098 0002337 273.3058  86.7834 14.98336191 59429
STARLINK-34457          
1 64368U 25126AA  26193.69394589  .00009783  00000+0  82586-3 0  9995
2 64368  69.9993  79.3813 0003313 265.9017  94.1763 14.98361074 59406
STARLINK-34444          
1 64369U 25126AB  26193.76506448  .00002821  00000+0  24411-3 0  9992
2 64369  69.9997  79.2247 0003256 282.9849  77.0947 14.98337844 59412
STARLINK-11732 [DTC]    
1 64370U 25127A   26193.64308740  .00130214  00000+0  99934-3 0  9997
2 64370  43.0003  51.4216 0001587 261.5482  98.5206 15.70914201 63155
STARLINK-11731 [DTC]    
1 64371U 25127B   26193.65901259  .00109394  00000+0  84251-3 0  9994
2 64371  43.0007  51.5496 0002169 267.1576  92.9043 15.70905032 63153
STARLINK-11746 [DTC]    
1 64372U 25127C   26193.75432546  .00178678  00000+0  13662-2 0  9992
2 64372  43.0011  50.5321 0002208 293.1578  66.9057 15.70840944 63178
STARLINK-11748 [DTC]    
1 64373U 25127D   26193.60695977  .00126222  00000+0  96918-3 0  9990
2 64373  42.9998  52.0232 0001761 258.9583 101.1086 15.70916404 63143
STARLINK-11739 [DTC]    
1 64374U 25127E   26192.97539292  .00118439  00000+0  90972-3 0  9992
2 64374  43.0001  54.9965 0004350 245.9652 114.0760 15.70928103 63056
STARLINK-11738 [DTC]    
1 64375U 25127F   26193.03380756  .00114529  00000+0  88265-3 0  9998
2 64375  43.0003  55.4696 0001830 307.1620  52.9080 15.70870735 63054
STARLINK-11745 [DTC]    
1 64376U 25127G   26193.63777787  .00233996  00000+0  17679-2 0  9999
2 64376  42.9998  51.3764 0002122 269.0899  90.9725 15.70951404 63158
STARLINK-11742 [DTC]    
1 64377U 25127H   26193.65370235  .00162582  00000+0  12406-2 0  9994
2 64377  43.0002  51.5021 0001568 249.0852 110.9848 15.70942579 63157
STARLINK-11711 [DTC]    
1 64378U 25127J   26192.98602827  .00173681  00000+0  13275-2 0  9992
2 64378  42.9987  55.0813 0001183 339.6110  20.4710 15.70866264 63162
STARLINK-11743 [DTC]    
1 64379U 25127K   26193.66432176  .00120748  00000+0  92835-3 0  9993
2 64379  43.0005  51.5873 0002351 259.5298 100.5305 15.70903997 63152
STARLINK-11744 [DTC]    
1 64380U 25127L   26193.64839616  .00179509  00000+0  13670-2 0  9991
2 64380  43.0010  51.4587 0002083 261.6274  98.4358 15.70933562 63155
STARLINK-11692 [DTC]    
1 64381U 25127M   26193.75963346  .00121193  00000+0  93460-3 0  9994
2 64381  43.0000  50.5638 0001759 277.8057  82.2611 15.70831272 63281
STARLINK-11740 [DTC]    
1 64382U 25127N   26193.61653738  .00236882  00000+0  17871-2 0  9994
2 64382  43.0007  51.2012 0002232 253.9817 106.0805 15.70976760 63157
STARLINK-34299          
1 64383U 25127P   26193.06122938  .00013956  00000+0  51555-3 0  9990
2 64383  42.9983 197.7818 0000796 214.1182 145.9619 15.27590998 61437
STARLINK-34271          
1 64384U 25127Q   26193.04965988  .00015335  00000+0  56544-3 0  9995
2 64384  42.9978 197.6897 0000960 257.9627 102.1117 15.27591612 61487
STARLINK-34100          
1 64385U 25127R   26193.05351966  .00009058  00000+0  33819-3 0  9997
2 64385  42.9970 197.7206 0000664 264.4660  95.6116 15.27585831 61432
STARLINK-34269          
1 64386U 25127S   26193.39957661  .00007911  00000+0  29667-3 0  9991
2 64386  42.9993 195.1548 0001388 261.1917  98.8777 15.27582465 61542
STARLINK-34351          
1 64387U 25127T   26193.39829016  .00012393  00000+0  45896-3 0  9996
2 64387  43.0030 195.1481 0002272 286.0487  74.0115 15.27589851 61542
